legacyId,uploadLimit,identifier,authorizedFormOfName,parallelFormsOfName,otherFormsOfName,types,contactPerson,streetAddress,city,region,country,postalCode,telephone,fax,email,website,history,geoculturalContext,mandates,internalStructures,collectingPolicies,buildings,holdings,findingAids,openingTimes,accessConditions,disabledAccess,researchServices,reproductionServices,publicFacilities,descriptionIdentifier,institutionIdentifier,descriptionRules,descriptionStatus,levelOfDetail,descriptionRevisionHistory,language,script,descriptionSources,maintenanceNote,geographicSubregions,thematicAreas,culture
10944,-1,BAAPMRC,"Arquivo Público Municipal de Rio de Contas",,,,,"Largo do Rosário","Rio de Contas",Bahia,BR,46170-000,"55 77 3475-2165 Ramal 22",,arquivopublicoderiodecontas@gmail.com,http://ammmrc.blogspot.com/,,,"Preservar acervos públicos e pessoais, por meio da gestão, recolhimento e difusão do patrimônio documental do Município.","Vinculação Administrativa:
Secretaria Municipal de Educação e Cultura",,,"Documentação pública (executiva e legislativa), acervos privados, documentação do Judiciário e cartorial.",,"De segunda a sexta-feira, das 8h às 18h.","Consulta aberta ao público de forma presencial.",,,"Reprodução fotográfica e digital.",,,"BR BAAPMRC",,Final,Completo,,,,,,,"Cadastro Nacional de Entidades Custodiadoras de Arquivos (CODEARQ)|África e escravidão negra",pt_BR
10952,-1,BAAPMDB,"Arquivo Público Municipal de Dom Basílio",,,,,"Rua Manoel Araújo,  nº 1 - Primeiro andar","Dom Basílio",Bahia,BR,46.165-000,"55 77 3448-2121",,arquivopublico@dombasilio.ba.gov.br,,"Ano de Criação:
2019",,"Preservar e guardar toda a documentação produzida pela Administração Pública Municipal, mantendo viva toda a história e memória do município, afim de conceder à população a possibilidade de acesso aos acervos, garantindo assim a transparência que é essencial para todos os municípios brasileiros.","Vinculação Administrativa:
Secretaria Municipal de Educação",,,"Documentação organizada e disposta em caixas-arquivo, sob estantes de aço, em fileiras lineares. Composta por documentos oriundos das mais diversas esferas administrativas do Município. Em fase de organização e acondicionamento.",,"De segunda a sexta-feira, das 8h às 12h e das 13h às 17h.","Há restrições de acesso aos documentos em fase de organização.",,,"Reprodução fotográfica sem flash e digital.",,,"BR BAAPMDB",,Final,Completo,,pt_BR,,,,,"Cadastro Nacional de Entidades Custodiadoras de Arquivos (CODEARQ)|Arquivos municipais",pt_BR
2513,-1,BAAHMS,"Arquivo Histórico Municipal de Salvador",,,,,"Fundação Gregório de Mattos, Rua Chile, 31, térreo, 1º e 5º andares",Salvador,Bahia,BR,40020-000,"55 71 3322-1486 - R/223",,arqhis@salvador.ba.gov.br,http://www.arquivohistorico.salvador.ba.gov.br/,"Antes da 1a Constituição Brasileira (1824) as Câmaras Municipais administravam a vida das cidades acumulando as funções de poder executivo e legislativo. Estas atividades geraram documentos que deram origem aos Arquivos Municipais. Acompanhando esse processo a Câmara Municipal de Salvador formou o núcleo central do Arquivo Municipal de Salvador.

Por ocasião da Proclamação da República, no período de 1894, este Arquivo ficou subordinado à Secretária de Expediente da Intendência através da Lei Nº 125, de 27 de Dezembro, que lhe aferiu poder de gerenciar a documentação administrativa do Município.

Com a extinção da Intendência em 1929 e criada a Prefeitura Municipal, o Arquivo Municipal passa a ser subordinado ao Gabinete do Prefeito. Em 23 de Novembro de 1931 é regulamentado com o Ato 112 como Arquivo Geral do Município e inaugurado em 10 de abril de 1932.

Em 1986 passa a ser nominado Arquivo Histórico Municipal de Salvador, integrado à Fundação Gregório de Mattos a nível de gerência.

Em 2009, através do Dec.19.401, o Arquivo Histórico Municipal de Salvador juntamente com os Museus e as Bibliotecas Municipais passa a ser gerenciado pela Gerência de Arquivo Histórico Municipal, Museus e Bibliotecas

O Arquivo Histórico Municipal da Cidade de Salvador procura inserir-se no novo modelo de arquivo público, desempenhando sua função social com relevância, buscando efetivar seu compromisso com os princípios da participação, transparência, responsabilidade e controle social e viabilizando cada vez mais o direito ao acesso à informação.

Estruturalmente está formado pelos Setores de Arquivos Permanentes, Setor de Arquivos Audiovisuais, Setor de Arquivos Impressos e Biblioteca e Setor de Arquivos Correntes e Intermediários, subordinados à Subgerência de Arquivos e Bibliotecas.",,"Gestão do patrimônio documental e do acervo bibliográfico do poder municipal da Cidade do Salvador. Bem como o estímulo à pesquisa histórica e cultural sobre a Bahia e particularmente sobre Salvador.",,,,"O Arquivo é formado por três Fundos: Câmara, Intendência e Prefeitura, desde o período Colonial até a atualidade e está dividido em quatro setores: Permanente, com a documentação textual; Biblioteca, com livros e periódicos; Audiovisuais, com fotografias, projetos, cartografia e filmes e Correntes e Intermediários, com a orientação sobre gestão documental nas secretarias e órgãos municipais.",,"De segunda a sexta-feira, das 13h30 às 18h30.","Há restrição de acesso aos documentos em fase de organização, necessidade de autorização",,,"Reprodução fotográfica, digital, videográfica/audiográfica e transcrição de originais",,,"BR BAAHMS",,Final,Parcial,,pt_BR,,,,,"Cadastro Nacional de Entidades Custodiadoras de Arquivos (CODEARQ)|África e escravidão negra|MOW Brasil",pt_BR
2515,-1,BAAPEB,"Arquivo Público do Estado da Bahia",," APEB",,,"Ladeira de Quintas, nº 50 - Baixa de Quintas",Salvador,Bahia,BR,40320-140,"55 71 3116-2165",,apb@fpc.ba.gov.br,http://www.fpc.ba.gov.br,,,"Dirigir, orientar, coordenar, supervisionar e avaliar as atividades do APEB.",,,,"Documentos de valor histórico, em sua maioria em suporte papel. São documentos textuais, mapas, plantas e fotografias, provenientes da Administração Pública, desde o período Colonial (1552), bem como de instituições privadas e de particulares.",,"De segunda a sexta-feira, das 08h30 às 17h..","Há restrição de acesso aos documentos em precário estado de conservação.",,,"Reprodução fotográfica, sem flash, e digital.",,,"BR BAAPEB",,Final,Parcial,,pt_BR,,,,,"Cadastro Nacional de Entidades Custodiadoras de Arquivos (CODEARQ)|África e escravidão negra|MOW Brasil",pt_BR
2519,-1,BAFCJA,"Fundação Casa de Jorge Amado",,,,,"Rua Alfredo de Brito, 49/51 - Largo do Pelourinho",Salvador,Bahia,BR,40026-280,"55 71 3321-0122 / 0070",,fundacao@fundacaojorgeamado.com.br,http://www.jorgeamado.org.br,,,"Preservar, divulgar e pesquisar os acervos bibliográficos e artísticos de Jorge Amado;  incentivar e apoiar estudos e pesquisas sobre a vida e a obra de Jorge Amado;  criar um fórum permanente de debates sobre cultura baiana, especialmente sobre a luta pela superação das discriminações raciais e sócio-econômicas;  incentivar e apoiar estudos e pesquisas sobre arte e literatura baianas.",,,,"Com período de abrangência que vai de 1932 até os dias atuais, o acervo da  FCJA é constituído por cerca de 250 mil documentos. Trata-se de um conjunto documental que reúne documentação pessoal dos escritores Jorge Amado e Zélia Gattai, livros da autoria de ambos em edições brasileiras, portuguesas e estrangeiras. Fazem parte desse conjunto, também Com período de abrangência que vai de 1932 até os dias atuais, o acervo da  FCJA é constituído por cerca de 250 mil documentos. Trata-se de um conjunto documental que reúne documentação pessoal dos escritores Jorge Amado e Zélia Gattai, livros da autoria de ambos em edições brasileiras, portuguesas e estrangeiras. Fazem parte desse conjunto, manuscritos literários, correspondências, periódicos, estudos sob forma de livros, teses, dissertações, monografias e outros textos acadêmicos. Além de um conjunto de mais de 6.000 fotografias, 21.000 negativos, DVD's, CD's, discos, cartazes, gravuras, caricaturas, ilustrações, diplomas, certificados, condecorações, troféus, medalhas, placas, quadros e esculturas.",,"De segunda a sexta-feira, das 10h às 17h30.","Necessidade de agendamento para consulta.",,,,,,"BR BAFCJA",,Final,Parcial,,pt_BR,,,,,"Cadastro Nacional de Entidades Custodiadoras de Arquivos (CODEARQ)",pt_BR
2627,-1,BAAPMC,"Arquivo Público Municipal de Camaçari",,,,,"Rua Tenente Fernando Tuy, s/nº - Ponto Certo",Camaçari,Bahia,BR,42800-000,"55 73 3621-6888",,emersoncramps@hotmail.com,,,,"Promover a guarda e conservação dos documentos municipais, de forma segura e responsável, tornando-os acessíveis ao público.","Vinculação Administrativa: P.M.C / Secretaria de Administração",,,"Constituído por documentos que abrange o período de 1931 a 2005 totalizando aproximadamente 550 metros lineares de documentos, a exemplo de leis, decretos, livros atas, ofícios, exemplares dos diário oficial, processos diversos e fotos que registram o processo de transformação do município e da máquina pública, constituindo importante fonte de informação sobre a organização da sociedade.

Uma parte da documentação produzida na Vila de Abrantes anterior a 1931 encontra-se custodiado no Arquivo Público do Estado da Bahia. Tem-se também no Arquivo da Cúria da Universidade Católica de Salvador documentação gerada nas paróquias do município, a exemplo de livros de batismo. O Arquivo Público de Camaçari tem feito uma pesquisa desta documentação com vistas à microfilmar para trazer copias desta documentação para compor seu acervo.

A equipe do APMC tem feito campanhas e buscado dialogar com famílias tradicionais do município para doar documentos e fotos de seus acervos para serem custodiados no Arquivo Público Municipal.",,"De segunda a sexta-feira das 8h às 17h.","Consulta aberta ao público.",,,"Transcrição de originais.",,,"BR BAAPMC",,Final,Parcial,,pt_BR,,https://pt.wikipedia.org/wiki/Arquivo_P%C3%BAblico_Municipal_de_Cama%C3%A7ari,,,"Cadastro Nacional de Entidades Custodiadoras de Arquivos (CODEARQ)",pt_BR
2629,-1,BAARQJ,"Arquivo Público Municipal de Jacobina",,,,,"Rua Coronel Teixeira, nº 210 - Centro",Jacobina,Bahia,BR,44700-000,"55 74 3621-5256",,,,,,"Gestão documental e garantia de acesso aos documentos.",,,,"Vinculação Administrativa: Secretaria Educação / Secretaria de Administração",,"De segunda a sexta-feira, das 9h às 12h e das 13h30 às 17h30.","Há restrição de acesso aos documentos em fase de organização, necessidade de autorização.",,,"Reprodução eletrostática, fotográfica, digital e transcrição de originais.",,,"BR BAARQJ",,Final,Parcial,,pt_BR,,,,,"Cadastro Nacional de Entidades Custodiadoras de Arquivos (CODEARQ)",pt_BR
2633,-1,BAAPMHD,"Arquivo Público Municipal Hermenito Dourado",,,,,"Pça Teotônio Marques Dourado, s/nº - Centro",Irecê,Bahia,BR,44900-000,"55 74 3641-3116 / 3117",,,,,,,"Vinculação Administrativa: Secretaria de Educação, cultura, esporte e lazer",,,,,"De segunda a sexta-feira, das 9h às 12h e das 14h às 18h.","Há restrição de acesso aos documentos em precário estado de conservação.",,,"Reprodução eletrostática",,,"BR BAAPMHD",,Final,Parcial,,pt_BR,,,,,"Cadastro Nacional de Entidades Custodiadoras de Arquivos (CODEARQ)",pt_BR
2635,-1,BAAPJM,"Arquivo Público Municipal João Mangabeira",,,,,"Praça Castro Alves, s/nº - Centro",Ilhéus,Bahia,BR,45650-000,"55 73 3634-1861",,flickts@ig.com.br,,,,,"Vinculação Administrativa: Secretaria de Administração",,,,,"De segunda a sexta-feira, das 12h às 18h.","Consulta aberta ao público.",,,"Reprodução fotográfica",,,"BR BAAPJM",,Final,Parcial,,pt_BR,,,,,"Cadastro Nacional de Entidades Custodiadoras de Arquivos (CODEARQ)",pt_BR
2641,-1,BAAUD6CJM,"Auditoria da 6ª Circunscrição da Justiça Militar",,,,,"Av. Luiz Viana Filho - Paralela Salvador, nº 1600 - SMUS",Salvador,Bahia,BR,41720-200,"55 71 3231-3963",,,http://www.stm.jus.br/primeira-instancia/auditorias-militares,,,"As Auditorias, distribuídas em Circunscrições Judiciárias Militares constituem a Primeira Instância da Justiça Militar da União. Sediam os Conselhos de Justiça que julgam crimes militares previstos em lei.","Vinculação Administrativa: Justiça Militar da União",,,"O acervo é formado por documentação processual e administrativa, compreendendo, além dos processos judiciais,  os documentos de apoio à atividade-fim do STM, como registros de tramitação, atas, ofícios, entre outros.",,"De segunda a sexta-feira, das 8h30 às 18h.","Consulta aberta ao público.",,,"Reprodução eletrostática.",,,"BR BAAUD6CJM",,Final,Parcial,,pt_BR,,,,,"Cadastro Nacional de Entidades Custodiadoras de Arquivos (CODEARQ)",pt_BR
2651,-1,BALHIST,"Laboratório de História Social do Trabalho",,LHIST,,,"Estrada do Bem Querer, Km 04 - s/nº - Bairro Universitário","Vitória da Conquista",Bahia,BR,45083-900,"55 77 3424-8697",,lhist.uesb@gmail.com,,,,"O Laboratório de História Social do Trabalho da Universidade Estadual do Sudoeste da Bahia (LHIST/Uesb) tem por principal atribuição a guarda e manutenção preventiva de documentos relativos à História Social do Trabalho na região Sudoeste da Bahia. A base de seu acervo é constituída pela documentação das Juntas de Conciliação e Julgamento e Varas do Trabalho de Vitória da Conquista, desde 1963.","Vinculação Administrativa: Universidade Estadual do Sudoeste da Bahia - UESB",,,"A principal base documental do acervo do LHIST integraliza cerca de 350 metros lineares de documentação da Justiça do Trabalho. Essa documentação é composta por processos trabalhistas, cópias de atas e sentenças, fichas de acompanhamento de processos e códices diversos oriundos das Juntas/Varas do Trabalho de Vitória da Conquista e Itapetinga.","Blog de divulgação do acervo e das atividades do Laboratório de História Social do Trabalho da Universidade Estadual do Sudoeste da Bahia
https://lhist.blogspot.com/?fbclid=IwAR0dEIHndqGrpawcYsI8nDOMX9fPRZL92Evvs9pZopyzEkEmerBS4_BLFT4",,"Consulta aberta ao público.",,,"Reprodução eletrostática",,,"BR BALHIST",,Final,Parcial,,pt_BR,,,,,"Cadastro Nacional de Entidades Custodiadoras de Arquivos (CODEARQ)",pt_BR
792,-1,BAUFBA,"Universidade Federal da Bahia",,,,,"Rua Augusto Viana , - Palácio da Reitoria nº: s/n Canela",Salvador,Bahia,BR,40110-909,"55 71 3283-6975 / 7062 / 7073",,gabinete@ufba.br,http://www.ufba.br,,,,,,,,,,,,,,,,"BR BAUFBA",,Final,Parcial,,pt_BR,,,,,"Cadastro Nacional de Entidades Custodiadoras de Arquivos (CODEARQ)|Memórias Reveladas",pt_BR
2631,-1,BAAPMLF,"Arquivo Público Municipal de Lauro de Freitas",,,,,"Rua Queira Deus, nº 895","Lauro de Freitas",Bahia,BR,42.700-000,,"55 71 3369-9219",isabela.arquivo.secad@gmail.com,,,,"Custodiar os documentos de valor permanente e intermediário acumulados pelos órgãos da Prefeitura e Câmara no exercício de suas funções dando-lhe tratamento técnico de pleno acesso. Estender a custódia aos documentos de origem privada considerados de interesse público municipal, sempre que houver conveniência a oportunidade, na forma estabelecida em regulamento. Estabelecer diretrizes e normas e exerce a supervisão, articulação e orientação técnica das unidades que desenvolvem atividades de protocolo e arquivo corrente no âmbito dos Poderes Executivos e Legislativos do Município.","Vinculação Administrativa: Secretaria Municipal de Administração",,,"Acervo em fase de organização, com datas-limites entre 1960-2016. Gênero textual, bibliográfico, cartográfico e iconográfico. Em sua totalidade suporte papel com poucas fitas magnéticas, acondicionados em caixa box e armazenado em estantes de aço.",,,"Documentos em fase de organização.",,,,,,"BR BAAPMLF",,Final,Parcial,,pt_BR,,,,,"Cadastro Nacional de Entidades Custodiadoras de Arquivos (CODEARQ)",pt_BR
2639,-1,BAAPMSGR,"Arquivo Público Municipal Sansão Geraldo Ribeiro",,,,,"Praça José Prado Alves, s/nº - Centro",Ourolândia,Bahia,BR,44718-000,"55 74 3681-2467 / 2119",,luci-barros@hotmail.com,,,,"Custodiar os documentos de valor permanente e intermediário acumulados pelos órgãos da Prefeitura e Câmara, dando-lhes tratamento técnico e garantia de pleno acesso.","Vinculação Administrativa: Secretaria de Educação e Cultura",,,,,"De segunda a sexta-feira, das 9h às 12h e das 14h às 17h.","Há restrição de acesso aos documentos em fase de organização, necessidade de autorização.",,,"Reprodução eletrostática.",,,"BR BAAPMSGR",,Final,Parcial,,pt_BR,,,,,"Cadastro Nacional de Entidades Custodiadoras de Arquivos (CODEARQ)",pt_BR
10946,-1,BAPOLOJUD,"Polo Regional Judiciário de Caetité",,,,,"Pç. Dr. Deocleciano Teixeira, 52",Caetité,Bahia,BR,46.400-000,"55 77  3454-1227",,gruposertoes@gmail.com,http://acervos.uneb.br/index.php/,"Ano de criação: 2011",,"Preservar acervos judiciais de vinte e oito Comarcas localizadas nas regiões Sudoeste e Oeste do estado da Bahia, por meio da gestão, recolhimento e difusão dos documentos judiciais. Administrado pelo Departamento de Ciências Humanas (DCH VI), campus de Caetité, da Universidade do Estado da Bahia (UNEB), o PoloJUD conta com a parceria do Tribunal de Justiça do Estado da Bahia (TJBA).","Vinculação Administrativa:
Universidade do Estado da Bahia (UNEB).",,,"Documentação do Judiciário e cartorial.",,"De segunda a sexta-feira, das 8h às 18h.","Acesso on-line e presencial.",,,"Reprodução fotográfica e digital.",,,"BR BAPOLOJUD",,Final,Completo,,pt_BR,,,,,"Cadastro Nacional de Entidades Custodiadoras de Arquivos (CODEARQ)",pt_BR
10950,-1,BAAPMPS,"Arquivo Público Municipal de Porto Seguro",,,,,"Rua Carlos Alberto Cancela, 228 - Bairro Cambolo","Porto Seguro",Bahia,BR,45810-993,,,arquivomunicipal@portoseguro.ba.gov.br,,"Ano de Criação:
2010",,"Promover a salvaguarda dos documentos produzidos pelo Município de Porto Seguro a fim de garantir o acesso à informação pública, assim como propiciar a valorização da história e memória local.","Vinculação Administrativa:
Secretaria de Administração do Município",,,"Documentação acumulada ao longo dos anos da administração do município, tendo Porto Seguro 129 anos completos em 30 de junho do ano de 2020. No segundo semestre de 2019, a documentação municipal que é raramente consultada começou a ser armazenada em um imóvel com o fim de concentrar o trabalho de tratamento técnico arquivístico, assim como dar início ao desenvolvimento das políticas arquivísticas municipais. Parte com etiquetas de identificação feitas na origem do documento. Parte armazenada em pastas a/z e caixas-arquivo de material plástico. Documentação atingida por pragas e agentes de deterioração ambiente. Não existem normas, manuais, plano ou código de classificação que regulam as atividades de arquivo.",,"De segunda a sexta-feira, das 8h às 12h.","Necessidade de organização e necessidade de prévio aviso.",,,"Reprodução por fotocópia com necessidade de prévio aviso.",,,"BR BAAPMPS",,Final,Completo,,pt_BR,,,,,"Cadastro Nacional de Entidades Custodiadoras de Arquivos (CODEARQ)",pt_BR
8617,-1,BAAPMCF,"Arquivo Público Municipal Antonio Cerqueira Antunes",,,,,"Rua Dr. Alfredo Mascarenhas, s/nº - Centro","Conceição da Feira",Bahia,BR,44320-000,"55 75 3244-3800",,,,,,,"Secretaria de Administração",,,,,"De segunda a sexta-feira, das 7h às 13h.","Consulta aberta ao público",,,,,,"BR BAAPMCF",,Final,Completo,,pt_BR,,,,,"Cadastro Nacional de Entidades Custodiadoras de Arquivos (CODEARQ)|Arquivos municipais",pt_BR
8619,-1,BANUDOC,"Núcleo de Memória e Documentação do Recôncavo",,,,,"Rua Rui Barbosa, 710, Centro
 -","Cruz das Almas",Bahia,BR,44.380-000,"55 75 3425-2238",,"nudoc@cahl.ufrb.edu.br; procult.ufrb@ufrb.edu.br",www.ufrb.edu.br/nudoc,"Criado pela Portaria 584/2011 de 8 de novembro de 2011,  o Núcleo de Memória e Documentação do Recôncavo (NUDOC) é um espaço de encontro, reflexão e produção de pesquisa. O local reúne diversas áreas de pesquisas e estudos do Recôncavo, abrigando arquivos e documentos que guardam a cultura e a história do território através de arquivos escritos, impressos, fotográficos e audiovisuais.

https://www.ufrb.edu.br/nudoc/sobre-o-nudoc (Acesso fev 2020)",,"O NUDOC tem como missão promover o acesso a informação e dar suporte as atividades de ensino, pesquisa, e extensão da Universidade Federal do Recôncavo da Bahia, além de preservar, conservar e salvaguardar todos os acervos em seu espaço.","Vinculação Administrativa:
Universidade Federal do Recôncavo da Bahia",,,"Reunir documentação dispersa em poder de instituições e particulares do Recôncavo da Bahia, classificando, restaurando, digitalizando e disponibilizando para a consulta aos pesquisadores. Além do acervo de fontes escritas, o NUDOC abriga registros de tradições orais, rezas, receitas, cantigas, sambas-de-roda, histórias e lendas locais. Estes acervos deverão ser disponibilizados para pesquisadores e para comunidades, servindo de base para elaboração de projetos e estratégias de desenvolvimento regional. O NUDOC também desenvolve atividades juntos à comunidade através da disponibilização de espaço e apoio para artistas locais e de outras regiões para realizarem eventos diversos, como recitais e exposições. As exposições abarcam pintura, escultura, vídeo, fotografia e artesanato que retratam pessoas, paisagens e comunidades locais.",,"De segunda a sexta-feira, das 8h às 18h.","Atendimento às solicitações por correio eletrônico.",,,,,,"BR BANUDOC",,Final,Completo,,pt_BR,,,,,"Cadastro Nacional de Entidades Custodiadoras de Arquivos (CODEARQ)",pt_BR
8621,-1,BADIMAS,"Diretoria de Artes Visuais e Multimeios",,,,,"Rua do Tijolo, 15 - Centro",Salvador,Bahia,BR,40020-246,"55 71 3116-8102",,cinematecadabahia@funceb.ba.gov.br,http://www.dimas.ba.gov.br/modules/conteudo/conteudo.php?conteudo=76,,,"A Fundação Cultural da Bahia, através da sua Diretoria do Audiovisual (DIMAS), com o intuito de promover a disseminação do patrimônio audiovisual baiano criou a Cinemateca da Bahia que visa preservar a memória do audiovisual baiano, salvaguardar bens materiais e imateriais, estimular a pesquisa e dinamizar o acesso do público, tanto à história documentada, como às criações ficcionais produzidas no nosso Estado e difundidas através das imagens em movimento. A Cinemateca da Bahia tem como missão ainda estabelecer espaços de discussões acerca dos conceitos de preservação, restauro, salvaguarda, das técnicas e transformações do audiovisual ao longo do tempo, além da legislação para o segmento. Também faz parte de suas atribuições desenvolver ações de mediação cultural e difusão do cinema no Estado.","Vinculação Administrativa:
Fundação Cultural do Estado da Bahia",,,"A Cinemateca da Bahia reúne, atualmente, o mais importante acervo especializado em audiovisual da Bahia. Composto por aproximadamente oito mil itens, como películas cinematográficas (em torno de 550, nos suportes 35mm, 16mm, Super 8), vídeos analógicos ( 1.512 unidades em VHS, Umatic, Betacam) e DVDs, Blu-Rays, HDCAM, Betacam Digital ( 816 filmes), cartazes (370, dos quais 93 baianos, 107 brasileiros e 170 internacionais), fotografias (1.500 imagens), revistas, catálogos, livros e roteiros (2.850 exemplares), que contam parte significativa da história do cinema baiano, do século 20 aos dias de hoje, além de dispor de peças referentes à cinematografia brasileira e internacional.",,"De segunda a sexta-feira, das 8h às 12h e das 14h às 17h.","Presencial acompanhado por funcionário.",,,"Reprodução digital.",,,"BR BADIMAS",,Final,Completo,,pt_BR,,,,,"Cadastro Nacional de Entidades Custodiadoras de Arquivos (CODEARQ)",pt_BR
2619,-1,BAAHMMB,"Arquivo Histórico Municipal Memória de Brumado",,,,,"Rua Dr. Mário Meira, nº 51 - Centro",Brumado,Bahia,BR,46100-000,"55 77 34412587",,arquivohistoricomunicipal_bdo@yahoo.com.br,,,,"Gerir o recolhimento, o tratamento técnico, a preservação, a exposição e o manuseio das diversas fontes documentais públicas e privadas sob sua custódia, adquiridos por meio de doações, estimulando seu acesso de acordo com as normas que asseguram o seu cumprimento.","Vinculação Administrativa: Secretaria Municipal de Educação",,,"O Arquivo Histórico Municipal custodia documentos originados dos poderes executivo e legislativo municipal, do judiciário nacional e estadual; bibliográficos diversos, oriundos da Biblioteca Municipal da cidade; vasto acervo iconográfico, bem como documentos privados (pecuniários, cartas, contábeis, de trabalho, móveis, entre outros) adquiridos através de doação de membros da sociedade brumadense.",,"De segunda a sexta-feira, das 7h30 às 11h30 e das 13h30 às 17h30.","Há restrição de acesso aos documentos em fase de organização.",,,"Reprodução fotográfica, digital e transcrição de originais.",,,"BR BAAHMMB",,Final,Parcial,,pt_BR,,,,,"Cadastro Nacional de Entidades Custodiadoras de Arquivos (CODEARQ)",pt_BR
2625,-1,BAAPMCT,"Arquivo Público Municipal de Caetité",,,,,"Pç. Dr. Deocleciano Teixeira, 52 - Centro",Caetité,Bahia,BR,46400-000,"55 77 3454-1227",,arquivocaetite@uneb.br,http://www.acervos.uneb.br/index.php/arquivo-p-blico-municipal-de-caetit,,,"A Casa de Memória Edmundo Cardoso é uma instituição privada, formada por uma Biblioteca, um Arquivo e um Museu em organização. É uma casa de pesquisa por excelência que traz fragmentos da história do município de Santa Maria. Sua finalidade é preservar e disponibilizar suas fontes documentais para a comunidade, especialmente aos pesquisadores e estudantes de nível superior.
A CMEC é coordenada por Therezinha de Jesus Pires Santos e Gilda May Cardoso Santos, segunda esposa e filha de Edmundo, respectivamente.","Vinculação Administrativa: Secretaria de Educação e Cultura",,,"Documentos legislativos (1808-1980); judiciários dos cartórios do cível e do crime (1847-1990, da sede e distritais); documentos do executivo (1810-2008); acervos privados de interesse público (1817-1996); acervo iconográfico (1845-1972); jornais (1897-2002); acervo bibliográfico (1823-2000).",,"De segunda a sexta-feira, das 9h às 12h e 14h30 às 18h.","Consulta aberta ao público",,,"Reprodução digital e transcrição de originais.",,,"BR BAAPMCT",,Final,Parcial,,pt_BR,,,,,"Cadastro Nacional de Entidades Custodiadoras de Arquivos (CODEARQ)",pt_BR
2645,-1,"BR BAFAPESB","Fundação de Amparo à Pesquisa do Estado da Bahia",,FAPESB,,,"Rua Aristides Novis, 203 - Colina de São Lázaro",Salvador,Bahia,BR,40.210-720,"55 71 3116-7611",,gabrielle.martins@fapesb.ba.gov.br,http://www.fapesb.ba.gov.br/,"A Fundação de Amparo à Pesquisa do Estado da Bahia – Fapesb é a agência de indução e fomento à pesquisa e à inovação científica e tecnológica do Estado da Bahia, vinculada à Secretaria de Ciência, Tecnologia e Inovação – Secti. A Fapesb foi criada em 2001 com a finalidade de apoiar projetos de natureza científica, tecnológica e de inovação, que sejam considerados relevantes para o desenvolvimento científico, tecnológico, econômico e social do Estado.

A Fundação possui diversos programas por meio dos quais são lançados editais que visam fortalecer a pesquisa local, criar redes de articulação, estimular a ciência e o ensino, para que sejam realizados estudos que contribuam, dentre outras ações, para a diminuição das desigualdades sociais, a preservação do meio ambiente e o fortalecimento da economia do estado da Bahia.",,"Viabilizar ações de Ciência, Tecnologia e Inovação para o desenvolvimento sustentável da Bahia.","Vinculação Administrativa: Secretaria de Ciência, Tecnologia e Inovação.",,,"O centro de Documentação e Informação da FAPESB possui, prioritariamente, documentos originados de suas atividades fim, sendo composto por tipologias e suportes ramificados, desde processos aprovados de submissão de propostas a editais e projetos lançados pela fundação até livros que: foram publicados através do amparo da mesma, representam uma prestação de contas das bolsas concedidas a projetos de pesquisa ou doados de outras FAPS ou pesquisadores.",,"De segunda a sexta-feira, das 8h às 17h.","Há restrição de acesso aos documentos, necessidade de autorização.",,,,,,"BR BAFAPESB",,Final,Parcial,,pt_BR,,,,,"Cadastro Nacional de Entidades Custodiadoras de Arquivos (CODEARQ)",pt_BR
2517,-1,BACMB,"Centro de Memória da Bahia",,,,,"Rua General Labatut, nº 27 - 3º andar - prédio da Biblioteca Pública do Estado da Bahia - Barris",Salvador,Bahia,BR,40070-100,"55 71 3116-6030",,cmb.fpc@fpc.ba.gov.br,http://www.fpc.ba.gov.br,,,"O Centro de Memória da Bahia, Unidade da Fundação Pedro Calmon/Secretaria de Cultura do Estado da Bahia, tem como m objetivo a localização, o recolhimento, a preservação e a organização de arquivos privados de personalidades públicas da Bahia; produzir fontes para pesquisa que possibilitem a ampliação e a difusão do conhecimento sobre a história da Bahia.",,,,"Acervos privados de ex-Governadores do Estado da Bahia e de personalidades que tiveram participação na vida política do Estado.",,"De segunda a sexta-feira, das 8h às 12h e das 14h às 18h.","Consulta aberta ao público.",,,"Reprodução fotográfica, digital e transcrição de originais.",,,"BR BACMB",,Final,Parcial,,pt_BR,,,,,"Cadastro Nacional de Entidades Custodiadoras de Arquivos (CODEARQ)",pt_BR
2621,-1,BAAPMVC,"Arquivo Municipal de Vitória da Conquista",,,,,"Rua do Triunfo, nº 219 - Centro","Vitória da Conquista",Bahia,BR,45035-450,"55 77 3422-5577",,genivan.silvaneri@gmail.com,http://www.pmvc.com.br,,,"Gestão, custódia  e guarda de documentos, coleções e afins, da administração pública e particular que interessem à cultura e à memória da cidade de Vitória da Conquista e da região na qual está inserida no Estado da Bahia.","Coleções de jornais editados na cidade e na região desde o início do século XX, atas do conselho municipal e câmara de vereadores; documentos oficiais da administração pública municipal.",,,,,"De segunda a sexta-feira, das 8h às 18h.","Há restrição de acesso aos documentos em fase de organização.",,,"Reprodução eletrostática e fotográfica.",,,"BR BAAPMVC",,Final,Parcial,,pt_BR,,,,,"Cadastro Nacional de Entidades Custodiadoras de Arquivos (CODEARQ)",pt_BR
2637,-1,BAAMBC,"Arquivo Público Municipal Maria Barreto Coutinho",,,,,"Praça Genésio César - Centro","Miguel Calmon",Bahia,BR,44720-000,"55 74 3627-2121",,,http://www.miguelcalmon.ba.gov.br,,,"Custodiar documentos municipais e estaduais, bem como documentos de particulares, conservando a memória documental.","Vinculação Administrativa: Secretaria de Cultura e Esporte",,,"Composto de documentos do Poder Executivo do Município.",,,,,,,,,"BR BAAMBC",,Final,Parcial,,pt_BR,,,,,"Cadastro Nacional de Entidades Custodiadoras de Arquivos (CODEARQ)",pt_BR
2643,-1,BAEGBA,"Empresa Gráfica da Bahia",,,,,"Rua Mello Moraes Filho, 189 - Fazenda Grande do Retiro",Salvador,Bahia,BR,40.352-000,"55 71 3116-2860",,thiago.lopes@egba.ba.gov.br,http://www.egba.ba.gov.br/,"A Empresa Gráfica da Bahia (Egba) foi criada pela Lei n. 881, de 17 de maio de 1912, na condição de autarquia e denominada, inicialmente, Imprensa Oficial do Estado (IOE). Mas foi o dia da mudança – 7 de setembro de 1915 – para sua primeira sede, um sobrado construído na Rua da Misericórdia, Centro Histórico de Salvador, que ficou marcado com a data de aniversário da empresa.

Em 30 de outubro de 1915, a IOE publicou a primeira edição do Diário Oficial do Estado e, em 1931, mudou-se para sua segunda sede, na Praça Municipal. A partir de 1948, passou a chamar-se Imprensa Oficial da Bahia (IOB), pela Lei n. 92, de 30 de agosto, um órgão de serviço industrializado ligado à Secretaria do Interior e Justiça do Estado, e, em 1966, tornou-se órgão da administração centralizada, ligado ao Departamento de Administração Geral (DAG).

Em 1972 aconteceram duas mudanças importantes para a IOB. Por força da Lei n. 3.037, de 3 de outubro, passa a ser denominada Empresa Gráfica da Bahia, empresa pública com personalidade jurídica de direito privado, capital exclusivo do Estado, patrimônio próprio, autonomia administrativa e financeira. No mesmo mês, a Egba é transferida para sua terceira sede, em uma área muito mais ampla, com 31 mil m2, onde permanece até hoje: na Rua Mello Moraes Filho, n. 189, Fazenda Grande Retiro.

A Egba passou por vários momentos, refletindo o glamour da sua época ou integrada à efervescência cultural do momento, mas sempre acompanhando o desenvolvimento e os avanços tecnológicos que a levaram a modernizações constantes. Já foi espaço disputado por acadêmicos para vagas de revisor, a exemplo de Thales de Azevedo, Jayme Junqueira Ayres, Xavier Marques e Mílton Santos; este, presidente da Egba na década de 1960.

As décadas de 1980 a 2010 foram decisivas para a modernização da Egba, que informatizou sua produção, introduziu novas tecnologias, implantou seu planejamento estratégico, criou novos serviços, capacitou seus funcionários, buscou e conquistou a certificação de seus serviços pela ISO 9001. Tudo isso, sem esquecer seu papel social, realizando diversos projetos e desenvolvendo ações voltadas à comunidade da Fazenda Grande do Retiro, onde está instalada há mais de quatro décadas.

Em 2015, a Egba comemora 100 anos de existência, consolidando também a relação da empresa com a comunidade do entorno, que gentilmente permitiu registros fotográficos, abrindo as portas de suas casas, estabelecimentos comerciais, rodas de capoeiras, locais de oração, para que seu cotidiano pudesse ficar eternizado nas páginas do livro Fazenda Grande do Retiro – um passeio pelo bairro, lançado pela Egba em dezembro de 2014.",,"Prover soluções para transparência e acesso às informações de caráter público, com disponibilidade, confiabilidade e integridade, de forma sustentável.","Vinculação Administrativa: Casa Civil do Governo do Estado da Bahia",,,"Acervo Histórico do DOE consiste na disponibilização do acervo histórico do Diário Oficial do Estado para consultas, cópias e impressões. Todas as edições do Diário Oficial do Estado, desde 1915, são guardadas em salas apropriadas, com estantes para armazenamento, sistemas de vigilância patrimonial 24 horas, câmeras de segurança, sistema de combate a incêndio e todos os serviços necessários para esse tipo de atividade.",,"De segunda a sexta-feira, das 8hàs 12h e das 13h às 17h..",,,,"Reprodução eletrostática autenticada.",,,"BR BAEGBA",,Final,Parcial,,pt_BR,,,,,"Cadastro Nacional de Entidades Custodiadoras de Arquivos (CODEARQ)",pt_BR
2647,-1,BAFMLF,"Fundação Mario Leal Ferreira",,,,,"Avenida Vale dos Barris nº 125",Salvador,Bahia,BR,40.070-055,"55 71 3202-9800",,biblioteca.fmlf@salvador.ba.gov.br,http://www.fmlf.salvador.ba.gov.br/,,,"Ser o órgão de referência em planejamento urbano da cidade de Salvador, com a finalidade de exercer a função do planejamento urbano bem como produzir e coordenar a produção de informações físicas e socioeconômicas sobre o Município.","Vinculação Administrativa: Prefeitura Municipal de Salvador",,,"Especializada em desenvolvimento urbano da cidade de Salvador, o acervo é composto por projetos e planos da área de urbanismo, desde meados de 1970, com documentos textuais, cartográficos, fotos aéreas e hemeroteca.","Legislação urbanística indexada Base de dados online: http://biblioteca.fmlf.salvador.ba.gov.br.","De segunda a sexta-feira, das 9h às 17h.","Consulta aberta ao público.",,,"Reprodução digital sem flash.",,,"BR BAFMLF",,Final,Parcial,,pt_BR,,,,,"Cadastro Nacional de Entidades Custodiadoras de Arquivos (CODEARQ)",pt_BR
2649,-1,"BR BAFPV","Fundação Pierre Verger",,,,,"2ª Travessa da Ladeira Vila América, Nº 6 - Engenho Velho de Brotas",Salvador,Bahia,BR,40420-340,"55 71 3203-8400",,fpv@pierreverger.org,http://www.pierreveger.org,"Criada em 1988 por Pierre Verger, com a ajuda de um conjunto de amigos, a Fundação foi, até sua morte, dirigida pelo próprio fotógrafo. Seu grande amigo Carybé o sucedeu no cargo de presidente. Após o falecimento de Carybé, sua filha, Solange Bernabó, ocupou o cargo de diretora até a nomeação de um novo presidente, Gilberto Pedreira de Freitas Sá, em 2001.",,"Divulgação e inserção dos materiais sobre cultura afro-brasileira, resultado das pesquisas, documentações fotográficas e observações do instituidor da FPV na sociedade atual.","Vinculação Administrativa: Instituição privada e sem fins lucrativos",,,"Documentos que incluem diversas correspondências com pesquisadores e materiais oriundos das pesquisas de Verger com anotações pessoais, textos sobre Ifá e divinação e outros materiais como revistas especializadas e catálogos.",,"De segunda a sexta-feira, das 08h às 12h.","Há restrição de acesso aos documentos, necessidade de autorização",,,,,,"BR BAFPV",,Final,Parcial,,pt_BR,,,,,"Cadastro Nacional de Entidades Custodiadoras de Arquivos (CODEARQ)",pt_BR
